[{"OBJECT_NAME":"LEMUR-2-DEANANDMAEVE","OBJECT_ID":"2025-276N","EPOCH":"2026-03-08T19:03:57.862944","MEAN_MOTION":15.18340037,"ECCENTRICITY":0.00056277,"INCLINATION":97.4282,"RA_OF_ASC_NODE":143.0037,"ARG_OF_PERICENTER":4.7019,"MEAN_ANOMALY":355.4267,"EPHEMERIS_TYPE":0,"CLASSIFICATION_TYPE":"U","NORAD_CAT_ID":66678,"ELEMENT_SET_NO":999,"REV_AT_EPOCH":1517,"BSTAR":0.00054058789,"MEAN_MOTION_DOT":0.00011044,"MEAN_MOTION_DDOT":0},{"OBJECT_NAME":"TRANSPORTER-15 OBJECT CN","OBJECT_ID":"2025-276CN","EPOCH":"2026-03-09T04:35:33.344160","MEAN_MOTION":15.18977527,"ECCENTRICITY":5.071e-5,"INCLINATION":97.4304,"RA_OF_ASC_NODE":143.5648,"ARG_OF_PERICENTER":336.0158,"MEAN_ANOMALY":24.1053,"EPHEMERIS_TYPE":0,"CLASSIFICATION_TYPE":"U","NORAD_CAT_ID":66750,"ELEMENT_SET_NO":999,"REV_AT_EPOCH":1524,"BSTAR":0.00028330364,"MEAN_MOTION_DOT":5.857e-5,"MEAN_MOTION_DDOT":0}]
