LEMUR-2-DEANANDMAEVE    
1 66678U 25276N   26067.79441971  .00011044  00000+0  54059-3 0  9993
2 66678  97.4282 143.0037 0005627   4.7019 355.4267 15.18340037 15174
TRANSPORTER-15 OBJECT CN
1 66750U 25276CN  26068.19135815  .00005857  00000+0  28330-3 0  9994
2 66750  97.4304 143.5648 0000507 336.0158  24.1053 15.18977527 15241
